ORBCOMM FM103           
1 40091U 14040F   25140.70965387  .00000432  00000+0  12949-3 0  9996
2 40091  47.0037 147.5655 0001455 190.1542 169.9314 14.58131237577150
ORBCOMM FM114           
1 41179U 15081A   25140.18387392  .00000624  00000+0  17049-3 0  9995
2 41179  47.0037  59.1103 0002392 235.7007 124.3652 14.58173434500383
ORBCOMM FM119           
1 41180U 15081B   25140.58173586  .00000557  00000+0  15636-3 0  9994
2 41180  47.0015 326.5361 0001584 275.5262  84.5442 14.58106649501698
ORBCOMM FM105           
1 41181U 15081C   25140.56799875  .00000221  00000+0  10712-3 0  9996
2 41181  47.0026 328.8665 0001962 208.7343 151.3429 14.45201507496754
ORBCOMM FM110           
1 41182U 15081D   25140.50642375  .00000780  00000+0  20494-3 0  9991
2 41182  47.0030  56.9980 0001471  23.9358 336.1595 14.57975129500302
ORBCOMM FM118           
1 41183U 15081E   25140.48720724  .00000778  00000+0  20241-3 0  9991
2 41183  47.0049  57.5103 0004487  13.6775 346.4231 14.58466331500409
ORBCOMM FM112           
1 41184U 15081F   25140.48959418  .00000534  00000+0  15129-3 0  9995
2 41184  46.9999 326.1263 0001631 235.4731 124.6001 14.58129657501621
ORBCOMM FM113           
1 41185U 15081G   25139.91825458  .00000793  00000+0  20702-3 0  9998
2 41185  47.0019 329.1455 0001580 248.7543 111.3173 14.58129023501523
